{
    "links": {
        "self": "http://www.neowsapp.com/rest/v1/neo/3829455?api_key=iIulBulltgU6a56xZRHN4H3l9WmuAYTsLGpBGhQ2"
    },
    "id": "3829455",
    "neo_reference_id": "3829455",
    "name": "(2018 RB7)",
    "designation": "2018 RB7",
    "nasa_jpl_url": "http://ssd.jpl.nasa.gov/sbdb.cgi?sstr=3829455",
    "absolute_magnitude_h": 21.7,
    "estimated_diameter": {
        "kilometers": {
            "estimated_diameter_min": 0.1214940408,
            "estimated_diameter_max": 0.2716689341
        },
        "meters": {
            "estimated_diameter_min": 121.4940407996,
            "estimated_diameter_max": 271.6689340891
        },
        "miles": {
            "estimated_diameter_min": 0.0754928736,
            "estimated_diameter_max": 0.1688071972
        },
        "feet": {
            "estimated_diameter_min": 398.6025088171,
            "estimated_diameter_max": 891.3023057169
        }
    },
    "is_potentially_hazardous_asteroid": true,
    "close_approach_data": [
        {
            "close_approach_date": "1960-04-02",
            "close_approach_date_full": "1960-Apr-02 05:17",
            "epoch_date_close_approach": -307651380000,
            "relative_velocity": {
                "kilometers_per_second": "6.3164953474",
                "kilometers_per_hour": "22739.3832506392",
                "miles_per_hour": "14129.3684425985"
            },
            "miss_distance": {
                "astronomical": "1.8614731113",
                "lunar": "724.1130402957",
                "kilometers": "278472412.512752931",
                "miles": "173034733.4082192078"
            },
            "orbiting_body": "Juptr"
        },
        {
            "close_approach_date": "2003-09-15",
            "close_approach_date_full": "2003-Sep-15 19:27",
            "epoch_date_close_approach": 1063654020000,
            "relative_velocity": {
                "kilometers_per_second": "22.6141077128",
                "kilometers_per_hour": "81410.7877660825",
                "miles_per_hour": "50585.4975427639"
            },
            "miss_distance": {
                "astronomical": "0.2636049034",
                "lunar": "102.5423074226",
                "kilometers": "39434732.070195758",
                "miles": "24503606.2610991404"
            },
            "orbiting_body": "Earth"
        },
        {
            "close_approach_date": "2018-09-14",
            "close_approach_date_full": "2018-Sep-14 22:26",
            "epoch_date_close_approach": 1536963960000,
            "relative_velocity": {
                "kilometers_per_second": "22.746144486",
                "kilometers_per_hour": "81886.1201496043",
                "miles_per_hour": "50880.8506007361"
            },
            "miss_distance": {
                "astronomical": "0.2636036204",
                "lunar": "102.5418083356",
                "kilometers": "39434540.136128548",
                "miles": "24503486.9988000424"
            },
            "orbiting_body": "Earth"
        },
        {
            "close_approach_date": "2022-07-26",
            "close_approach_date_full": "2022-Jul-26 13:31",
            "epoch_date_close_approach": 1658842260000,
            "relative_velocity": {
                "kilometers_per_second": "7.9507653381",
                "kilometers_per_hour": "28622.7552170296",
                "miles_per_hour": "17785.0669847149"
            },
            "miss_distance": {
                "astronomical": "0.0925531244",
                "lunar": "36.0031653916",
                "kilometers": "13845750.272085028",
                "miles": "8603350.2764202664"
            },
            "orbiting_body": "Venus"
        },
        {
            "close_approach_date": "2043-03-22",
            "close_approach_date_full": "2043-Mar-22 04:40",
            "epoch_date_close_approach": 2310612000000,
            "relative_velocity": {
                "kilometers_per_second": "5.2206154732",
                "kilometers_per_hour": "18794.2157033845",
                "miles_per_hour": "11677.9947519169"
            },
            "miss_distance": {
                "astronomical": "1.5990186376",
                "lunar": "622.0182500264",
                "kilometers": "239209782.275261912",
                "miles": "148638066.2671299056"
            },
            "orbiting_body": "Juptr"
        }
    ],
    "orbital_data": {
        "orbit_id": "5",
        "orbit_determination_date": "2019-03-20 07:06:27",
        "first_observation_date": "2018-08-15",
        "last_observation_date": "2018-09-29",
        "data_arc_in_days": 45,
        "observations_used": 30,
        "orbit_uncertainty": "6",
        "minimum_orbit_intersection": ".0192385",
        "jupiter_tisserand_invariant": "3.164",
        "epoch_osculation": "2459000.5",
        "eccentricity": ".6693058879738037",
        "semi_major_axis": "2.41347412862642",
        "inclination": "5.297903632210033",
        "ascending_node_longitude": "115.5634582498893",
        "orbital_period": "1369.501141157899",
        "perihelion_distance": ".7981216838643118",
        "perihelion_argument": "314.333482803953",
        "aphelion_distance": "4.028826573388529",
        "perihelion_time": "2458418.957325123758",
        "mean_anomaly": "152.8697981065131",
        "mean_motion": ".2628694414198324",
        "equinox": "J2000",
        "orbit_class": {
            "orbit_class_type": "APO",
            "orbit_class_description": "Near-Earth asteroid orbits which cross the Earth’s orbit similar to that of 1862 Apollo",
            "orbit_class_range": "a (semi-major axis) > 1.0 AU; q (perihelion) < 1.017 AU"
        }
    },
    "is_sentry_object": false
}